IRIDIUM 26              
1 24903U 97043A   25081.22004746  .00001204  00000+0  39955-3 0  9992
2 24903  86.3994 147.1525 0002320  88.7701 271.3762 14.37042756444720
IRIDIUM 22              
1 24907U 97043E   25081.28744082  .00001082  00000+0  36677-3 0  9998
2 24907  86.4005 150.5843 0002201  94.3065 265.8384 14.35868222444295
DUMMY MASS 1            
1 24925U 97048A   25081.53733844  .00001406  00000+0  15437-3 0  9996
2 24925  86.3418 175.3663 0009003  93.1035 267.1220 14.86878261492497
DUMMY MASS 2            
1 24926U 97048B   25081.35045689  .00001503  00000+0  16617-3 0  9999
2 24926  86.3419 177.0417 0009731 102.4794 257.7520 14.86631267492243
IRIDIUM 29              
1 24944U 97051A   25081.13180195  .00001468  00000+0  49522-3 0  9992
2 24944  86.4037 180.3788 0002082 100.7236 259.4196 14.36359466440998
IRIDIUM 33              
1 24946U 97051C   25080.80970837  .00000905  00000+0  31221-3 0  9999
2 24946  86.3951 179.7672 0008075  19.1404 341.0094 14.34817509440222
IRIDIUM 28              
1 24948U 97051E   25080.81344079  .00001228  00000+0  40578-3 0  9999
2 24948  86.4042 178.0808 0002253  83.9606 276.1848 14.37287752441369
IRIDIUM 36              
1 24967U 97056C   25081.06842539  .00001340  00000+0  44155-3 0  9997
2 24967  86.4013 209.5486 0001852  90.3881 269.7529 14.37492295439700
